{
    "links": {
        "self": "http://www.neowsapp.com/rest/v1/neo/54075579?api_key=iIulBulltgU6a56xZRHN4H3l9WmuAYTsLGpBGhQ2"
    },
    "id": "54075579",
    "neo_reference_id": "54075579",
    "name": "(2020 UK2)",
    "designation": "2020 UK2",
    "nasa_jpl_url": "http://ssd.jpl.nasa.gov/sbdb.cgi?sstr=54075579",
    "absolute_magnitude_h": 26.924,
    "estimated_diameter": {
        "kilometers": {
            "estimated_diameter_min": 0.0109585975,
            "estimated_diameter_max": 0.024504169
        },
        "meters": {
            "estimated_diameter_min": 10.9585975164,
            "estimated_diameter_max": 24.5041689848
        },
        "miles": {
            "estimated_diameter_min": 0.0068093547,
            "estimated_diameter_max": 0.01522618
        },
        "feet": {
            "estimated_diameter_min": 35.9534050758,
            "estimated_diameter_max": 80.394257772
        }
    },
    "is_potentially_hazardous_asteroid": false,
    "close_approach_data": [
        {
            "close_approach_date": "1961-08-21",
            "close_approach_date_full": "1961-Aug-21 10:01",
            "epoch_date_close_approach": -263915940000,
            "relative_velocity": {
                "kilometers_per_second": "11.500948264",
                "kilometers_per_hour": "41403.4137504857",
                "miles_per_hour": "25726.4711717948"
            },
            "miss_distance": {
                "astronomical": "0.1121561769",
                "lunar": "43.6287528141",
                "kilometers": "16778325.171583203",
                "miles": "10425567.8216180814"
            },
            "orbiting_body": "Earth"
        },
        {
            "close_approach_date": "2020-10-18",
            "close_approach_date_full": "2020-Oct-18 01:55",
            "epoch_date_close_approach": 1602986100000,
            "relative_velocity": {
                "kilometers_per_second": "8.0427399374",
                "kilometers_per_hour": "28953.8637744643",
                "miles_per_hour": "17990.8049658609"
            },
            "miss_distance": {
                "astronomical": "0.0097612865",
                "lunar": "3.7971404485",
                "kilometers": "1460267.668859755",
                "miles": "907368.254204419"
            },
            "orbiting_body": "Earth"
        }
    ],
    "orbital_data": {
        "orbit_id": "5",
        "orbit_determination_date": "2020-11-03 14:56:58",
        "first_observation_date": "2020-10-18",
        "last_observation_date": "2020-10-24",
        "data_arc_in_days": 6,
        "observations_used": 27,
        "orbit_uncertainty": "7",
        "minimum_orbit_intersection": ".000452238",
        "jupiter_tisserand_invariant": "3.445",
        "epoch_osculation": "2459000.5",
        "eccentricity": ".5503078769675371",
        "semi_major_axis": "2.206989640080478",
        "inclination": "1.160534207179168",
        "ascending_node_longitude": "20.49344713805868",
        "orbital_period": "1197.564376304477",
        "perihelion_distance": ".9924658567584413",
        "perihelion_argument": "349.1451539001855",
        "aphelion_distance": "3.421513423402515",
        "perihelion_time": "2459128.446467068170",
        "mean_anomaly": "321.5379940686959",
        "mean_motion": ".3006101443255283",
        "equinox": "J2000",
        "orbit_class": {
            "orbit_class_type": "APO",
            "orbit_class_description": "Near-Earth asteroid orbits which cross the Earth’s orbit similar to that of 1862 Apollo",
            "orbit_class_range": "a (semi-major axis) > 1.0 AU; q (perihelion) < 1.017 AU"
        }
    },
    "is_sentry_object": false
}